Seq,plate_barcode,well_barcode,RAD_ID,PlateID,Well,SampleID,LabID,SPP_ID,SPP_pc1,YYYY,lat,lon,elev_m,HUC_6,HUC_8,HUC_10,HU_6_NAME,HU_8_NAME,HU_10_NAME,HU_12_NAME,STATES,county,dist2stream_m,COMID,GNIS_ID,GNIS_NAME,NHDlength_km,NHD_StreamLevel,NHD_StreamOrder,NHD_Tot_DA_sqkm,Locality,EcoRegion,Locality_details
SOMM163_CTGTAG_RA_GGAAACATCGTGCAGG,CTGTAG,AAACATCG,RAD-223,DNA-A-268,A02,RAP1751,RABE-4,RABE,NA,NA,NA,NA,NA,NA,NA,NA,NA,WEST,NA,NA,NA,NA,NA,NA,NA,NA,NA,NA,NA,NA,WESTUS,NA,NA
SOMM163_CTGTAG_RA_GGAACAACCATGCAGG,CTGTAG,AACAACCA,RAD-223,DNA-A-268,B01,RAP1760,RAAU-2,RAAU,NA,NA,NA,NA,NA,NA,NA,NA,NA,WEST,NA,NA,NA,NA,NA,NA,NA,NA,NA,NA,NA,NA,WESTUS,NA,NA
SOMM163_CTGTAG_RA_GGAACCGAGATGCAGG,CTGTAG,AACCGAGA,RAD-223,DNA-A-268,B02,RAP1761,RABE-5,RABE,NA,NA,NA,NA,NA,NA,NA,NA,NA,WEST,NA,NA,NA,NA,NA,NA,NA,NA,NA,NA,NA,NA,WESTUS,NA,NA
SOMM163_CTGTAG_RA_GGAACGAACGTGCAGG,CTGTAG,AACGAACG,RAD-223,DNA-A-268,A09,RAP1758,RAPR-AC1,RAPR,NA,NA,NA,NA,NA,NA,NA,NA,NA,WEST,NA,NA,NA,NA,NA,NA,NA,NA,NA,NA,NA,NA,WESTUS,NA,NA
SOMM163_CTGTAG_RA_GGAACGCTTATGCAGG,CTGTAG,AACGCTTA,RAD-223,DNA-A-268,B03,RAP1762,RACA-3,RACA,NA,NA,NA,NA,NA,NA,NA,NA,NA,WEST,NA,NA,NA,NA,NA,NA,NA,NA,NA,NA,NA,NA,WESTUS,NA,NA
SOMM163_CTGTAG_RA_GGAACGTGATTGCAGG,CTGTAG,AACGTGAT,RAD-223,DNA-A-268,A05,RAP1754,RADR-HP3,RADR,NA,NA,NA,NA,NA,NA,NA,NA,NA,WEST,NA,NA,NA,NA,NA,NA,NA,NA,NA,NA,NA,NA,WESTUS,NA,NA
SOMM163_CTGTAG_RA_GGAAGACGGATGCAGG,CTGTAG,AAGACGGA,RAD-223,DNA-A-268,B04,RAP1763,LICL-1,LICL,NA,NA,NA,NA,NA,NA,NA,NA,NA,WEST,NA,NA,NA,NA,NA,NA,NA,NA,NA,NA,NA,NA,WESTUS,NA,NA
SOMM163_CTGTAG_RA_GGAAGGTACATGCAGG,CTGTAG,AAGGTACA,RAD-223,DNA-A-268,B05,RAP1764,RADR-5,RADR,NA,NA,NA,NA,NA,NA,NA,NA,NA,WEST,NA,NA,NA,NA,NA,NA,NA,NA,NA,NA,NA,NA,WESTUS,NA,NA
SOMM163_CTGTAG_RA_GGAATGTTGCTGCAGG,CTGTAG,AATGTTGC,RAD-223,DNA-A-268,G01,RAP1806,RABE-2,RABE,NA,NA,NA,NA,NA,NA,NA,NA,NA,WEST,NA,NA,NA,NA,NA,NA,NA,NA,NA,NA,NA,NA,WESTUS,NA,NA
SOMM163_CTGTAG_RA_GGACAAGCTATGCAGG,CTGTAG,ACAAGCTA,RAD-223,DNA-A-268,A01,RAP1750,RAAU-1,RAAU,NA,NA,NA,NA,NA,NA,NA,NA,NA,WEST,NA,NA,NA,NA,NA,NA,NA,NA,NA,NA,NA,NA,WESTUS,NA,NA
SOMM163_CTGTAG_RA_GGACACAGAATGCAGG,CTGTAG,ACACAGAA,RAD-223,DNA-A-268,B06,RAP1765,RAPI-A110-3,RAPI,NA,NA,NA,NA,NA,NA,NA,NA,NA,WEST,NA,NA,NA,NA,NA,NA,NA,NA,NA,NA,NA,NA,WESTUS,NA,NA
SOMM163_CTGTAG_RA_GGACACGAGATGCAGG,CTGTAG,ACACGAGA,RAD-223,DNA-A-268,F09,RAP1805,GAOL-MVZ228-274,GAOL,NA,NA,NA,NA,NA,NA,NA,NA,NA,WEST,NA,NA,NA,NA,NA,NA,NA,NA,NA,NA,NA,NA,WESTUS,NA,NA
SOMM163_CTGTAG_RA_GGACACTGACTGCAGG,CTGTAG,ACACTGAC,RAD-223,DNA-A-268,G02,RAP1807,LICA-15,LICA,NA,NA,NA,NA,NA,NA,NA,NA,NA,WEST,NA,NA,NA,NA,NA,NA,NA,NA,NA,NA,NA,NA,WESTUS,NA,NA
SOMM163_CTGTAG_RA_GGACAGATTCTGCAGG,CTGTAG,ACAGATTC,RAD-223,DNA-A-268,G03,RAP1808,RACH-PBL2,RACH,NA,NA,NA,NA,NA,NA,NA,NA,NA,WEST,NA,NA,NA,NA,NA,NA,NA,NA,NA,NA,NA,NA,WESTUS,NA,NA
SOMM163_CTGTAG_RA_GGACAGCAGATGCAGG,CTGTAG,ACAGCAGA,RAD-223,DNA-A-268,B07,RAP1766,LISY-1,LISY,NA,NA,NA,NA,NA,NA,NA,NA,NA,WEST,NA,NA,NA,NA,NA,NA,NA,NA,NA,NA,NA,NA,WESTUS,NA,NA
SOMM163_CTGTAG_RA_GGACATTGGCTGCAGG,CTGTAG,ACATTGGC,RAD-223,DNA-A-268,A03,RAP1752,RACA-2,RACA,NA,NA,NA,NA,NA,NA,NA,NA,NA,WEST,NA,NA,NA,NA,NA,NA,NA,NA,NA,NA,NA,NA,WESTUS,NA,NA
SOMM163_CTGTAG_RA_GGACCACTGTTGCAGG,CTGTAG,ACCACTGT,RAD-223,DNA-A-268,A04,RAP1753,RACH-PBL4,RACH,NA,NA,NA,NA,NA,NA,NA,NA,NA,WEST,NA,NA,NA,NA,NA,NA,NA,NA,NA,NA,NA,NA,WESTUS,NA,NA
SOMM163_CTGTAG_RA_GGACCTCCAATGCAGG,CTGTAG,ACCTCCAA,RAD-223,DNA-A-268,B08,RAP1767,RATA-4,RATA,NA,NA,NA,NA,NA,NA,NA,NA,NA,WEST,NA,NA,NA,NA,NA,NA,NA,NA,NA,NA,NA,NA,WESTUS,NA,NA
SOMM163_CTGTAG_RA_GGACGACAAGTGCAGG,CTGTAG,ACGACAAG,RAD-223,DNA-A-268,G09,RAP1814,GAOL-MVZ228-275,GAOL,NA,NA,NA,NA,NA,NA,NA,NA,NA,WEST,NA,NA,NA,NA,NA,NA,NA,NA,NA,NA,NA,NA,WESTUS,NA,NA
SOMM163_CTGTAG_RA_GGACGCTCGATGCAGG,CTGTAG,ACGCTCGA,RAD-223,DNA-A-268,B09,RAP1768,RAPR-AC2,RAPR,NA,NA,NA,NA,NA,NA,NA,NA,NA,WEST,NA,NA,NA,NA,NA,NA,NA,NA,NA,NA,NA,NA,WESTUS,NA,NA
SOMM163_CTGTAG_RA_GGACGTATCATGCAGG,CTGTAG,ACGTATCA,RAD-223,DNA-A-268,B10,RAP1769,RAPI-2,RAPI,NA,NA,NA,NA,NA,NA,NA,NA,NA,WEST,NA,NA,NA,NA,NA,NA,NA,NA,NA,NA,NA,NA,WESTUS,NA,NA
SOMM163_CTGTAG_RA_GGAGATCGCATGCAGG,CTGTAG,AGATCGCA,RAD-223,DNA-A-268,C01,RAP1770,RAAU-6,RAAU,NA,NA,NA,NA,NA,NA,NA,NA,NA,WEST,NA,NA,NA,NA,NA,NA,NA,NA,NA,NA,NA,NA,WESTUS,NA,NA
SOMM163_CTGTAG_RA_GGAGATGTACTGCAGG,CTGTAG,AGATGTAC,RAD-223,DNA-A-268,G04,RAP1809,RADR-HP1,RADR,NA,NA,NA,NA,NA,NA,NA,NA,NA,WEST,NA,NA,NA,NA,NA,NA,NA,NA,NA,NA,NA,NA,WESTUS,NA,NA
SOMM163_CTGTAG_RA_GGAGCACCTCTGCAGG,CTGTAG,AGCACCTC,RAD-223,DNA-A-268,G05,RAP1810,RALU-2,RALU,NA,NA,NA,NA,NA,NA,NA,NA,NA,WEST,NA,NA,NA,NA,NA,NA,NA,NA,NA,NA,NA,NA,WESTUS,NA,NA
SOMM163_CTGTAG_RA_GGAGCAGGAATGCAGG,CTGTAG,AGCAGGAA,RAD-223,DNA-A-268,C02,RAP1771,LICA-JM2UV,LICA,NA,NA,NA,NA,NA,NA,NA,NA,NA,WEST,NA,NA,NA,NA,NA,NA,NA,NA,NA,NA,NA,NA,WESTUS,NA,NA
SOMM163_CTGTAG_RA_GGAGCCATGCTGCAGG,CTGTAG,AGCCATGC,RAD-223,DNA-A-268,G06,RAP1811,RASP-3,RASP,NA,NA,NA,NA,NA,NA,NA,NA,NA,WEST,NA,NA,NA,NA,NA,NA,NA,NA,NA,NA,NA,NA,WESTUS,NA,NA
SOMM163_CTGTAG_RA_GGAGGCTAACTGCAGG,CTGTAG,AGGCTAAC,RAD-223,DNA-A-268,G07,RAP1812,RATA-1,RATA,NA,NA,NA,NA,NA,NA,NA,NA,NA,WEST,NA,NA,NA,NA,NA,NA,NA,NA,NA,NA,NA,NA,WESTUS,NA,NA
SOMM163_CTGTAG_RA_GGAGTACAAGTGCAGG,CTGTAG,AGTACAAG,RAD-223,DNA-A-268,A10,RAP1759,RAPI-1,RAPI,NA,NA,NA,NA,NA,NA,NA,NA,NA,WEST,NA,NA,NA,NA,NA,NA,NA,NA,NA,NA,NA,NA,WESTUS,NA,NA
SOMM163_CTGTAG_RA_GGAGTCAAGCTGCAGG,CTGTAG,AGTCAAGC,RAD-223,DNA-A-268,H03,RAP1817,RACH-PBL3,RACH,NA,NA,NA,NA,NA,NA,NA,NA,NA,WEST,NA,NA,NA,NA,NA,NA,NA,NA,NA,NA,NA,NA,WESTUS,NA,NA
SOMM163_CTGTAG_RA_GGAGTCACTATGCAGG,CTGTAG,AGTCACTA,RAD-223,DNA-A-268,C03,RAP1772,RACA-4,RACA,NA,NA,NA,NA,NA,NA,NA,NA,NA,WEST,NA,NA,NA,NA,NA,NA,NA,NA,NA,NA,NA,NA,WESTUS,NA,NA
SOMM163_CTGTAG_RA_GGATAGCGACTGCAGG,CTGTAG,ATAGCGAC,RAD-223,DNA-A-268,G08,RAP1813,RAYA-WC4,RAYA,NA,NA,NA,NA,NA,NA,NA,NA,NA,WEST,NA,NA,NA,NA,NA,NA,NA,NA,NA,NA,NA,NA,WESTUS,NA,NA
SOMM163_CTGTAG_RA_GGATCCTGTATGCAGG,CTGTAG,ATCCTGTA,RAD-223,DNA-A-268,C04,RAP1773,LICL-2,LICL,NA,NA,NA,NA,NA,NA,NA,NA,NA,WEST,NA,NA,NA,NA,NA,NA,NA,NA,NA,NA,NA,NA,WESTUS,NA,NA
SOMM163_CTGTAG_RA_GGATGCCTAATGCAGG,CTGTAG,ATGCCTAA,RAD-223,DNA-A-268,A08,RAP1757,RATA-3,RATA,NA,NA,NA,NA,NA,NA,NA,NA,NA,WEST,NA,NA,NA,NA,NA,NA,NA,NA,NA,NA,NA,NA,WESTUS,NA,NA
SOMM163_CTGTAG_RA_GGATTGAGGATGCAGG,CTGTAG,ATTGAGGA,RAD-223,DNA-A-268,C05,RAP1774,RADR-6,RADR,NA,NA,NA,NA,NA,NA,NA,NA,NA,WEST,NA,NA,NA,NA,NA,NA,NA,NA,NA,NA,NA,NA,WESTUS,NA,NA
SOMM163_CTGTAG_RA_GGCAACCACATGCAGG,CTGTAG,CAACCACA,RAD-223,DNA-A-268,C06,RAP1775,RAPI-BAJ001,RAPI,NA,NA,NA,NA,NA,NA,NA,NA,NA,WEST,NA,NA,NA,NA,NA,NA,NA,NA,NA,NA,NA,NA,WESTUS,NA,NA
SOMM163_CTGTAG_RA_GGCAAGACTATGCAGG,CTGTAG,CAAGACTA,RAD-223,DNA-A-268,C07,RAP1776,LISY-2,LISY,NA,NA,NA,NA,NA,NA,NA,NA,NA,WEST,NA,NA,NA,NA,NA,NA,NA,NA,NA,NA,NA,NA,WESTUS,NA,NA
SOMM163_CTGTAG_RA_GGCAATGGAATGCAGG,CTGTAG,CAATGGAA,RAD-223,DNA-A-268,C08,RAP1777,RATA-5,RATA,NA,NA,NA,NA,NA,NA,NA,NA,NA,WEST,NA,NA,NA,NA,NA,NA,NA,NA,NA,NA,NA,NA,WESTUS,NA,NA
SOMM163_CTGTAG_RA_GGCACTTCGATGCAGG,CTGTAG,CACTTCGA,RAD-223,DNA-A-268,C09,RAP1778,RAPR-AC3,RAPR,NA,NA,NA,NA,NA,NA,NA,NA,NA,WEST,NA,NA,NA,NA,NA,NA,NA,NA,NA,NA,NA,NA,WESTUS,NA,NA
SOMM163_CTGTAG_RA_GGCAGATCTGTGCAGG,CTGTAG,CAGATCTG,RAD-223,DNA-A-268,A07,RAP1756,RASP-H2,RASP,NA,NA,NA,NA,NA,NA,NA,NA,NA,WEST,NA,NA,NA,NA,NA,NA,NA,NA,NA,NA,NA,NA,WESTUS,NA,NA
SOMM163_CTGTAG_RA_GGCCATCCTCTGCAGG,CTGTAG,CCATCCTC,RAD-223,DNA-A-268,H01,RAP1815,RABE-3,RABE,NA,NA,NA,NA,NA,NA,NA,NA,NA,WEST,NA,NA,NA,NA,NA,NA,NA,NA,NA,NA,NA,NA,WESTUS,NA,NA
SOMM163_CTGTAG_RA_GGCCGAAGTATGCAGG,CTGTAG,CCGAAGTA,RAD-223,DNA-A-268,D01,RAP1779,RAAU-7,RAAU,NA,NA,NA,NA,NA,NA,NA,NA,NA,WEST,NA,NA,NA,NA,NA,NA,NA,NA,NA,NA,NA,NA,WESTUS,NA,NA
SOMM163_CTGTAG_RA_GGCCGACAACTGCAGG,CTGTAG,CCGACAAC,RAD-223,DNA-A-268,H02,RAP1816,RACA-1,RACA,NA,NA,NA,NA,NA,NA,NA,NA,NA,WEST,NA,NA,NA,NA,NA,NA,NA,NA,NA,NA,NA,NA,WESTUS,NA,NA
SOMM163_CTGTAG_RA_GGCCGTGAGATGCAGG,CTGTAG,CCGTGAGA,RAD-223,DNA-A-268,D02,RAP1780,LICA-7,LICA,NA,NA,NA,NA,NA,NA,NA,NA,NA,WEST,NA,NA,NA,NA,NA,NA,NA,NA,NA,NA,NA,NA,WESTUS,NA,NA
SOMM163_CTGTAG_RA_GGCCTCCTGATGCAGG,CTGTAG,CCTCCTGA,RAD-223,DNA-A-268,D03,RAP1781,RACA-5,RACA,NA,NA,NA,NA,NA,NA,NA,NA,NA,WEST,NA,NA,NA,NA,NA,NA,NA,NA,NA,NA,NA,NA,WESTUS,NA,NA
SOMM163_CTGTAG_RA_GGCCTCTATCTGCAGG,CTGTAG,CCTCTATC,RAD-223,DNA-A-268,H04,RAP1818,RADR-HP2,RADR,NA,NA,NA,NA,NA,NA,NA,NA,NA,WEST,NA,NA,NA,NA,NA,NA,NA,NA,NA,NA,NA,NA,WESTUS,NA,NA
SOMM163_CTGTAG_RA_GGCGAACTTATGCAGG,CTGTAG,CGAACTTA,RAD-223,DNA-A-268,D04,RAP1782,LICL-3,LICL,NA,NA,NA,NA,NA,NA,NA,NA,NA,WEST,NA,NA,NA,NA,NA,NA,NA,NA,NA,NA,NA,NA,WESTUS,NA,NA
SOMM163_CTGTAG_RA_GGCGACACACTGCAGG,CTGTAG,CGACACAC,RAD-223,DNA-A-268,H05,RAP1819,RALU-WF34a-,RALU,NA,NA,NA,NA,NA,NA,NA,NA,NA,WEST,NA,NA,NA,NA,NA,NA,NA,NA,NA,NA,NA,NA,WESTUS,NA,NA
SOMM163_CTGTAG_RA_GGCGACTGGATGCAGG,CTGTAG,CGACTGGA,RAD-223,DNA-A-268,D05,RAP1783,RALU-Wetw.RL205,RALU,NA,NA,NA,NA,NA,NA,NA,NA,NA,WEST,NA,NA,NA,NA,NA,NA,NA,NA,NA,NA,NA,NA,WESTUS,NA,NA
SOMM163_CTGTAG_RA_GGCGCATACATGCAGG,CTGTAG,CGCATACA,RAD-223,DNA-A-268,D06,RAP1784,RAPI-BAJ002,RAPI,NA,NA,NA,NA,NA,NA,NA,NA,NA,WEST,NA,NA,NA,NA,NA,NA,NA,NA,NA,NA,NA,NA,WESTUS,NA,NA
SOMM163_CTGTAG_RA_GGCGCTGATCTGCAGG,CTGTAG,CGCTGATC,RAD-223,DNA-A-268,A06,RAP1755,RAPI-A20A1,RAPI,NA,NA,NA,NA,NA,NA,NA,NA,NA,WEST,NA,NA,NA,NA,NA,NA,NA,NA,NA,NA,NA,NA,WESTUS,NA,NA
SOMM163_CTGTAG_RA_GGCGGATTGCTGCAGG,CTGTAG,CGGATTGC,RAD-223,DNA-A-268,H06,RAP1820,RASP-H1,RASP,NA,NA,NA,NA,NA,NA,NA,NA,NA,WEST,NA,NA,NA,NA,NA,NA,NA,NA,NA,NA,NA,NA,WESTUS,NA,NA
SOMM163_CTGTAG_RA_GGCTAAGGTCTGCAGG,CTGTAG,CTAAGGTC,RAD-223,DNA-A-268,H07,RAP1821,RATA-2,RATA,NA,NA,NA,NA,NA,NA,NA,NA,NA,WEST,NA,NA,NA,NA,NA,NA,NA,NA,NA,NA,NA,NA,WESTUS,NA,NA
SOMM163_CTGTAG_RA_GGCTCAATGATGCAGG,CTGTAG,CTCAATGA,RAD-223,DNA-A-268,D07,RAP1785,LISY-3,LISY,NA,NA,NA,NA,NA,NA,NA,NA,NA,WEST,NA,NA,NA,NA,NA,NA,NA,NA,NA,NA,NA,NA,WESTUS,NA,NA
SOMM163_CTGTAG_RA_GGCTGAGCCATGCAGG,CTGTAG,CTGAGCCA,RAD-223,DNA-A-268,D08,RAP1786,RAYA-1,RAYA,NA,NA,NA,NA,NA,NA,NA,NA,NA,WEST,NA,NA,NA,NA,NA,NA,NA,NA,NA,NA,NA,NA,WESTUS,NA,NA
SOMM163_CTGTAG_RA_GGCTGGCATATGCAGG,CTGTAG,CTGGCATA,RAD-223,DNA-A-268,D09,RAP1787,RAPR-AC4,RAPR,NA,NA,NA,NA,NA,NA,NA,NA,NA,WEST,NA,NA,NA,NA,NA,NA,NA,NA,NA,NA,NA,NA,WESTUS,NA,NA
SOMM163_CTGTAG_RA_GGGAACAGGCTGCAGG,CTGTAG,GAACAGGC,RAD-223,DNA-A-268,H08,RAP1822,RAYA-CC7,RAYA,NA,NA,NA,NA,NA,NA,NA,NA,NA,WEST,NA,NA,NA,NA,NA,NA,NA,NA,NA,NA,NA,NA,WESTUS,NA,NA
SOMM163_CTGTAG_RA_GGGACAGTGCTGCAGG,CTGTAG,GACAGTGC,RAD-223,DNA-A-268,H09,RAP1823,GAOL-MVZ228-276,GAOL,NA,NA,NA,NA,NA,NA,NA,NA,NA,WEST,NA,NA,NA,NA,NA,NA,NA,NA,NA,NA,NA,NA,WESTUS,NA,NA
SOMM163_CTGTAG_RA_GGGATAGACATGCAGG,CTGTAG,GATAGACA,RAD-223,DNA-A-268,E01,RAP1788,RAAU-18,RAAU,NA,NA,NA,NA,NA,NA,NA,NA,NA,WEST,NA,NA,NA,NA,NA,NA,NA,NA,NA,NA,NA,NA,WESTUS,NA,NA
SOMM163_CTGTAG_RA_GGGCCACATATGCAGG,CTGTAG,GCCACATA,RAD-223,DNA-A-268,E02,RAP1789,LICA-12,LICA,NA,NA,NA,NA,NA,NA,NA,NA,NA,WEST,NA,NA,NA,NA,NA,NA,NA,NA,NA,NA,NA,NA,WESTUS,NA,NA
SOMM163_CTGTAG_RA_GGGCGAGTAATGCAGG,CTGTAG,GCGAGTAA,RAD-223,DNA-A-268,E03,RAP1790,RACH-Beatty,RACH,NA,NA,NA,NA,NA,NA,NA,NA,NA,WEST,NA,NA,NA,NA,NA,NA,NA,NA,NA,NA,NA,NA,WESTUS,NA,NA
SOMM163_CTGTAG_RA_GGGCTAACGATGCAGG,CTGTAG,GCTAACGA,RAD-223,DNA-A-268,E04,RAP1791,LICL-4,LICL,NA,NA,NA,NA,NA,NA,NA,NA,NA,WEST,NA,NA,NA,NA,NA,NA,NA,NA,NA,NA,NA,NA,WESTUS,NA,NA
SOMM163_CTGTAG_RA_GGGCTCGGTATGCAGG,CTGTAG,GCTCGGTA,RAD-223,DNA-A-268,E05,RAP1792,RALU-Teare.RL227,RALU,NA,NA,NA,NA,NA,NA,NA,NA,NA,WEST,NA,NA,NA,NA,NA,NA,NA,NA,NA,NA,NA,NA,WESTUS,NA,NA
SOMM163_CTGTAG_RA_GGGGAGAACATGCAGG,CTGTAG,GGAGAACA,RAD-223,DNA-A-268,E06,RAP1793,RASP-1,RASP,NA,NA,NA,NA,NA,NA,NA,NA,NA,WEST,NA,NA,NA,NA,NA,NA,NA,NA,NA,NA,NA,NA,WESTUS,NA,NA
SOMM163_CTGTAG_RA_GGGGTGCGAATGCAGG,CTGTAG,GGTGCGAA,RAD-223,DNA-A-268,E07,RAP1794,LISY-4,LISY,NA,NA,NA,NA,NA,NA,NA,NA,NA,WEST,NA,NA,NA,NA,NA,NA,NA,NA,NA,NA,NA,NA,WESTUS,NA,NA
SOMM163_CTGTAG_RA_GGGTACGCAATGCAGG,CTGTAG,GTACGCAA,RAD-223,DNA-A-268,E08,RAP1795,RAYA-RS-28,RAYA,NA,NA,NA,NA,NA,NA,NA,NA,NA,WEST,NA,NA,NA,NA,NA,NA,NA,NA,NA,NA,NA,NA,WESTUS,NA,NA
SOMM163_CTGTAG_RA_GGGTCGTAGATGCAGG,CTGTAG,GTCGTAGA,RAD-223,DNA-A-268,E09,RAP1796,RAPR-AC5,RAPR,NA,NA,NA,NA,NA,NA,NA,NA,NA,WEST,NA,NA,NA,NA,NA,NA,NA,NA,NA,NA,NA,NA,WESTUS,NA,NA
SOMM163_CTGTAG_RA_GGTATCAGCATGCAGG,CTGTAG,TATCAGCA,RAD-223,DNA-A-268,F01,RAP1797,RABE-1,RABE,NA,NA,NA,NA,NA,NA,NA,NA,NA,WEST,NA,NA,NA,NA,NA,NA,NA,NA,NA,NA,NA,NA,WESTUS,NA,NA
SOMM163_CTGTAG_RA_GGTCCGTCTATGCAGG,CTGTAG,TCCGTCTA,RAD-223,DNA-A-268,F02,RAP1798,LICA-14,LICA,NA,NA,NA,NA,NA,NA,NA,NA,NA,WEST,NA,NA,NA,NA,NA,NA,NA,NA,NA,NA,NA,NA,WESTUS,NA,NA
SOMM163_CTGTAG_RA_GGTCTTCACATGCAGG,CTGTAG,TCTTCACA,RAD-223,DNA-A-268,F03,RAP1799,RACH-PBL1,RACH,NA,NA,NA,NA,NA,NA,NA,NA,NA,WEST,NA,NA,NA,NA,NA,NA,NA,NA,NA,NA,NA,NA,WESTUS,NA,NA
SOMM163_CTGTAG_RA_GGTGAAGAGATGCAGG,CTGTAG,TGAAGAGA,RAD-223,DNA-A-268,F04,RAP1800,LICL-5,LICL,NA,NA,NA,NA,NA,NA,NA,NA,NA,WEST,NA,NA,NA,NA,NA,NA,NA,NA,NA,NA,NA,NA,WESTUS,NA,NA
SOMM163_CTGTAG_RA_GGTGGAACAATGCAGG,CTGTAG,TGGAACAA,RAD-223,DNA-A-268,F05,RAP1801,RALU-1,RALU,NA,NA,NA,NA,NA,NA,NA,NA,NA,WEST,NA,NA,NA,NA,NA,NA,NA,NA,NA,NA,NA,NA,WESTUS,NA,NA
SOMM163_CTGTAG_RA_GGTGGCTTCATGCAGG,CTGTAG,TGGCTTCA,RAD-223,DNA-A-268,F06,RAP1802,RASP-2,RASP,NA,NA,NA,NA,NA,NA,NA,NA,NA,WEST,NA,NA,NA,NA,NA,NA,NA,NA,NA,NA,NA,NA,WESTUS,NA,NA
SOMM163_CTGTAG_RA_GGTGGTGGTATGCAGG,CTGTAG,TGGTGGTA,RAD-223,DNA-A-268,F07,RAP1803,LISY-5,LISY,NA,NA,NA,NA,NA,NA,NA,NA,NA,WEST,NA,NA,NA,NA,NA,NA,NA,NA,NA,NA,NA,NA,WESTUS,NA,NA
SOMM163_CTGTAG_RA_GGTTCACGCATGCAGG,CTGTAG,TTCACGCA,RAD-223,DNA-A-268,F08,RAP1804,RAYA-Mad7,RAYA,NA,NA,NA,NA,NA,NA,NA,NA,NA,WEST,NA,NA,NA,NA,NA,NA,NA,NA,NA,NA,NA,NA,WESTUS,NA,NA
